NORAD_CAT_ID,OBJECT_NAME,OBJECT_TYPE,EPOCH,MEAN_MOTION,ECCENTRICITY,INCLINATION,RA_OF_ASC_NODE,ARG_OF_PERICENTER,MEAN_ANOMALY,BSTAR,MEAN_MOTION_DOT,MEAN_MOTION_DDOT,TLE_LINE0,TLE_LINE1,TLE_LINE2,SEMIMAJOR_AXIS,PERIOD,APOGEE,PERIGEE,DECAYED
49179.0,STARLINK-3043,PAYLOAD,2022-07-14 19:52:04,14.96747123,0.00031,69.9978,17.0594,250.9844,109.0979,0.00036254,4.064e-05,0.0,0 STARLINK-3043,1 49179U 21082BB  22195.82782587  .00004064  00000-0  36254-3 0  9996,2 49179  69.9978  17.0594 0003100 250.9844 109.0979 14.96747123 47170,6955.092,96.209,579.113,574.8009999999998,0.0
49179.0,STARLINK-3043,PAYLOAD,2022-07-15 05:29:31,14.96722808,0.000299,69.9981,16.051,251.2009,108.8825,3.1366e-05,2.67e-06,0.0,0 STARLINK-3043,1 49179U 21082BB  22196.22883818  .00000267  00000-0  31366-4 0  9991,2 49179  69.9981  16.0510 0002990 251.2009 108.8825 14.96722808 47231,6955.167,96.21,579.112,574.953,0.0
49179.0,STARLINK-3043,PAYLOAD,2022-07-15 11:54:28,14.96725039,0.0003037,69.9971,15.3786,251.5063,108.5766,1.7952e-05,1.14e-06,0.0,0 STARLINK-3043,1 49179U 21082BB  22196.49616342  .00000114  00000-0  17952-4 0  9992,2 49179  69.9971  15.3786 0003037 251.5063 108.5766 14.96725039 47277,6955.161,96.21,579.138,574.913,0.0
49179.0,STARLINK-3043,PAYLOAD,2022-07-15 21:31:53,14.96733549,0.0002915,69.9972,14.3694,254.997,105.0866,2.8274e-05,2.32e-06,0.0,0 STARLINK-3043,1 49179U 21082BB  22196.89714789  .00000232  00000-0  28274-4 0  9990,2 49179  69.9972  14.3694 0002915 254.9970 105.0866 14.96733549 47338,6955.134,96.21,579.0269999999998,574.972,0.0
49179.0,STARLINK-3043,PAYLOAD,2022-07-16 11:58:03,14.96712899,0.0003047,69.9968,12.8565,252.5102,107.5724,5.4286e-05,5.3e-06,0.0,0 STARLINK-3043,1 49179U 21082BB  22197.49864608  .00000530  00000-0  54286-4 0  9996,2 49179  69.9968  12.8565 0003047 252.5102 107.5724 14.96712899 47426,6955.198,96.211,579.182,574.944,0.0
49179.0,STARLINK-3043,PAYLOAD,2022-07-16 21:35:29,14.96709272,0.0003246,69.9977,11.8476,253.6446,106.4355,-7.2733e-06,-1.75e-06,0.0,0 STARLINK-3043,1 49179U 21082BB  22197.89964246 -.00000175  00000-0 -72733-5 0  9994,2 49179  69.9977  11.8476 0003246 253.6446 106.4355 14.96709272 47485,6955.209,96.211,579.332,574.817,0.0
49179.0,STARLINK-3043,PAYLOAD,2022-07-17 12:01:37,14.96712289,0.0003164,69.9981,10.3355,253.2035,106.8776,-3.6695e-05,-5.12e-06,0.0,0 STARLINK-3043,1 49179U 21082BB  22198.50113153 -.00000512  00000-0 -36695-4 0  9997,2 49179  69.9981  10.3355 0003164 253.2035 106.8776 14.96712289 47572,6955.2,96.211,579.266,574.864,0.0
49179.0,STARLINK-3043,PAYLOAD,2022-07-17 18:26:34,14.96714722,0.0003173,69.9981,9.6631,253.4935,106.5874,-2.6245e-05,-3.92e-06,0.0,0 STARLINK-3043,1 49179U 21082BB  22198.76845817 -.00000392  00000-0 -26245-4 0  9990,2 49179  69.9981   9.6631 0003173 253.4935 106.5874 14.96714722 47616,6955.191999999999,96.211,579.264,574.851,0.0
49179.0,STARLINK-3043,PAYLOAD,2022-07-18 10:28:57,14.96711659,0.0003228,69.9982,7.982,254.2163,105.864,0.00014346,1.551e-05,0.0,0 STARLINK-3043,1 49179U 21082BB  22199.43677730  .00001551  00000-0  14346-3 0  9996,2 49179  69.9982   7.9820 0003228 254.2163 105.8640 14.96711659 47711,6955.2019999999975,96.211,579.312,574.822,0.0
49179.0,STARLINK-3043,PAYLOAD,2022-07-18 20:06:23,14.96716458,0.0003191,69.9983,6.9734,253.9107,106.17,0.00019195,2.106e-05,0.0,0 STARLINK-3043,1 49179U 21082BB  22199.83776673  .00002106  00000-0  19195-3 0  9990,2 49179  69.9983   6.9734 0003191 253.9107 106.1700 14.96716458 47777,6955.187,96.211,579.2719999999998,574.8330000000002,0.0
49179.0,STARLINK-3043,PAYLOAD,2022-07-19 12:08:45,14.96726412,0.0003237,69.9982,5.2924,252.8891,107.1913,0.00026347,2.926e-05,0.0,0 STARLINK-3043,1 49179U 21082BB  22200.50607975  .00002926  00000-0  26347-3 0  9992,2 49179  69.9982   5.2924 0003237 252.8891 107.1913 14.96726412 47877,6955.156,96.21,579.273,574.77,0.0
49179.0,STARLINK-3043,PAYLOAD,2022-07-19 20:09:57,14.9671821,0.0003363,69.9998,4.4518,253.2613,106.8176,9.7405e-05,1.023e-05,0.0,0 STARLINK-3043,1 49179U 21082BB  22200.84024597  .00001023  00000-0  97405-4 0  9993,2 49179  69.9998   4.4518 0003363 253.2613 106.8176 14.96718210 47921,6955.182,96.21,579.386,574.7080000000002,0.0
49179.0,STARLINK-3043,PAYLOAD,2022-07-20 13:48:34,14.967225199999998,0.0003371,69.9982,2.6028,253.1449,106.934,0.00015019,1.628e-05,0.0,0 STARLINK-3043,1 49179U 21082BB  22201.57539375  .00001628  00000-0  15019-3 0  9990,2 49179  69.9982   2.6028 0003371 253.1449 106.9340 14.96722520 48031,6955.168000000002,96.21,579.378,574.689,0.0
49179.0,STARLINK-3043,PAYLOAD,2022-07-20 20:13:30,14.96728777,0.0003382,69.9982,1.9302,253.2802,106.7985,0.00012721,1.365e-05,0.0,0 STARLINK-3043,1 49179U 21082BB  22201.84271555  .00001365  00000-0  12721-3 0  9998,2 49179  69.9982   1.9302 0003382 253.2802 106.7985 14.96728777 48071,6955.149,96.21,579.366,574.6619999999998,0.0
49179.0,STARLINK-3043,PAYLOAD,2022-07-21 10:39:39,14.96724972,0.0003218,69.9987,0.4168,250.4866,109.5945,3.2858e-05,2.85e-06,0.0,0 STARLINK-3043,1 49179U 21082BB  22202.44420378  .00000285  00000-0  32858-4 0  9998,2 49179  69.9987   0.4168 0003218 250.4866 109.5945 14.96724972 48167,6955.161,96.21,579.264,574.788,0.0
49179.0,STARLINK-3043,PAYLOAD,2022-07-21 20:17:05,14.96718472,0.0003409,69.9987,359.409,255.8933,104.1847,2.9399e-05,2.45e-06,0.0,0 STARLINK-3043,1 49179U 21082BB  22202.84519886  .00000245  00000-0  29399-4 0  9997,2 49179  69.9987 359.4090 0003409 255.8933 104.1847 14.96718472 48221,6955.181,96.21,579.4169999999998,574.675,0.0
49179.0,STARLINK-3043,PAYLOAD,2022-07-22 04:18:16,14.96718986,0.00032,69.9987,358.5685,251.9998,108.0811,9.1574e-05,9.57e-06,0.0,0 STARLINK-3043,1 49179U 21082BB  22203.17935760  .00000957  00000-0  91574-4 0  9991,2 49179  69.9987 358.5685 0003200 251.9998 108.0811 14.96718986 48277,6955.179,96.21,579.27,574.819,0.0
49179.0,STARLINK-3043,PAYLOAD,2022-07-22 09:06:59,14.96723354,0.0003198999999999,69.9986,358.064,251.9463,108.1347,7.4009e-05,7.56e-06,0.0,0 STARLINK-3043,1 49179U 21082BB  22203.37985045  .00000756  00000-0  74009-4 0  9995,2 49179  69.9986 358.0640 0003199 251.9463 108.1347 14.96723354 48300,6955.166,96.21,579.256,574.806,0.0
49179.0,STARLINK-3043,PAYLOAD,2022-07-23 12:23:01,14.96718538,0.0003208999999999,69.9986,355.2065,252.6009,107.4798,0.00012691,1.361e-05,0.0,0 STARLINK-3043,1 49179U 21082BB  22204.51599017  .00001361  00000-0  12691-3 0  9993,2 49179  69.9986 355.2065 0003209 252.6009 107.4798 14.96718538 48474,6955.181,96.21,579.278,574.814,0.0
49179.0,STARLINK-3043,PAYLOAD,2022-07-23 13:59:15,14.96718357,0.0003208999999999,69.9986,355.0384,252.4388,107.642,0.00011286,1.2e-05,0.0,0 STARLINK-3043,1 49179U 21082BB  22204.58282248  .00001200  00000-0  11286-3 0  9996,2 49179  69.9986 355.0384 0003209 252.4388 107.6420 14.96718357 48488,6955.181,96.21,579.278,574.814,0.0
49179.0,STARLINK-3043,PAYLOAD,2022-07-23 20:24:13,14.96711669,0.000321,69.9988,354.366,252.8327,107.248,6.6289e-05,6.67e-06,0.0,0 STARLINK-3043,1 49179U 21082BB  22204.85015571  .00000667  00000-0  66289-4 0  9999,2 49179  69.9988 354.3660 0003210 252.8327 107.2480 14.96711669 48524,6955.2019999999975,96.211,579.3,574.8340000000002,0.0
49179.0,STARLINK-3043,PAYLOAD,2022-07-24 14:02:50,14.96719667,0.0003305,69.9987,352.517,252.3882,107.6915,6.0829e-05,6.05e-06,0.0,0 STARLINK-3043,1 49179U 21082BB  22205.58530099  .00000605  00000-0  60829-4 0  9993,2 49179  69.9987 352.5170 0003305 252.3882 107.6915 14.96719667 48630,6955.177,96.21,579.341,574.743,0.0
49179.0,STARLINK-3043,PAYLOAD,2022-07-24 18:51:31,14.96755149,0.0003503999999999,69.9987,352.0125,252.2931,107.7845,-0.00059661,-6.921e-05,0.0,0 STARLINK-3043,1 49179U 21082BB  22205.78578445 -.00006921  00000-0 -59661-3 0  9992,2 49179  69.9987 352.0125 0003504 252.2931 107.7845 14.96755149 48661,6955.066999999999,96.208,579.369,574.495,0.0
49179.0,STARLINK-3043,PAYLOAD,2022-07-25 02:52:45,14.96695383,0.0003187,69.9989,351.1722,250.4751,109.6063,0.00021728,2.395e-05,0.0,0 STARLINK-3043,1 49179U 21082BB  22206.11996950  .00002395  00000-0  21728-3 0  9997,2 49179  69.9989 351.1722 0003187 250.4751 109.6063 14.96695383 48715,6955.252,96.212,579.3340000000002,574.901,0.0
49179.0,STARLINK-3043,PAYLOAD,2022-07-25 09:17:42,14.96704281,0.0003296,69.9988,350.4999,250.5918,109.4884,5.8673e-05,5.8e-06,0.0,0 STARLINK-3043,1 49179U 21082BB  22206.38729289  .00000580  00000-0  58673-4 0  9999,2 49179  69.9988 350.4999 0003296 250.5918 109.4884 14.96704281 48750,6955.225,96.211,579.382,574.797,0.0
49179.0,STARLINK-3043,PAYLOAD,2022-07-25 15:42:39,14.96706722,0.0003288999999999,69.9988,349.8275,251.6458,108.4343,-1.655e-06,-1.11e-06,0.0,0 STARLINK-3043,1 49179U 21082BB  22206.65462222 -.00000111  00000-0 -16550-5 0  9991,2 49179  69.9988 349.8275 0003289 251.6458 108.4343 14.96706722 48797,6955.217,96.211,579.37,574.795,0.0
49179.0,STARLINK-3043,PAYLOAD,2022-07-26 12:33:45,14.96711496,0.0003385,69.9989,347.6425,252.3569,107.722,-1.0614e-06,-1.04e-06,0.0,0 STARLINK-3043,1 49179U 21082BB  22207.52343821 -.00000104  00000-0 -10614-5 0  9998,2 49179  69.9989 347.6425 0003385 252.3569 107.7220 14.96711496 48924,6955.2019999999975,96.211,579.422,574.7130000000002,0.0
49179.0,STARLINK-3043,PAYLOAD,2022-07-26 18:58:42,14.96712176,0.0003384,69.999,346.9702,252.5137,107.5651,-2.6494e-06,-1.22e-06,0.0,0 STARLINK-3043,1 49179U 21082BB  22207.79076645 -.00000122  00000-0 -26494-5 0  9997,2 49179  69.9990 346.9702 0003384 252.5137 107.5651 14.96712176 48964,6955.2,96.211,579.419,574.712,0.0
49179.0,STARLINK-3043,PAYLOAD,2022-07-27 12:37:19,14.96710488,0.0003453,69.9988,345.1206,252.3883,107.6898,0.00012819,1.376e-05,0.0,0 STARLINK-3043,1 49179U 21082BB  22208.52591789  .00001376  00000-0  12819-3 0  9994,2 49179  69.9988 345.1206 0003453 252.3883 107.6898 14.96710488 49075,6955.206,96.211,579.472,574.669,0.0
